{
  "norad_id": 61218,
  "name": "STARLINK-32423",
  "history": [
    {
      "epoch": "2026-03-28T15:58:13.447488Z",
      "apogee_km": 476.07593391726823,
      "perigee_km": 474.42563813839297,
      "latitude_deg": 5.4756391730774435e-05,
      "longitude_deg": 168.66919265360735,
      "height_km": 476.2098524749564,
      "semi_major_axis_km": 6853.387786027831,
      "eccentricity": 0.0001204,
      "inclination_deg": 53.1598,
      "raan_deg": 234.3078,
      "arg_perigee_deg": 94.2348,
      "mean_anomaly_deg": 265.8791,
      "mean_motion_rev_day": 15.30188038
    },
    {
      "epoch": "2026-03-30T02:27:24.651360Z",
      "apogee_km": 476.19739524106444,
      "perigee_km": 474.32723963532317,
      "latitude_deg": -1.2677915395881126e-06,
      "longitude_deg": 3.2841606177219727,
      "height_km": 476.0546896383687,
      "semi_major_axis_km": 6853.399317438194,
      "eccentricity": 0.00013644,
      "inclination_deg": 53.1583,
      "raan_deg": 227.6358,
      "arg_perigee_deg": 83.5281,
      "mean_anomaly_deg": 276.5875,
      "mean_motion_rev_day": 15.30184176
    },
    {
      "epoch": "2026-03-30T13:25:46.967232Z",
      "apogee_km": 476.272802508548,
      "perigee_km": 474.2076058218454,
      "latitude_deg": 4.682232649058761e-05,
      "longitude_deg": -163.88302539574377,
      "height_km": 476.03274426575206,
      "semi_major_axis_km": 6853.377204165196,
      "eccentricity": 0.00015067,
      "inclination_deg": 53.1576,
      "raan_deg": 225.5122,
      "arg_perigee_deg": 84.1665,
      "mean_anomaly_deg": 275.9508,
      "mean_motion_rev_day": 15.30191582
    },
    {
      "epoch": "2026-03-30T14:59:50.248032Z",
      "apogee_km": 476.0969476915179,
      "perigee_km": 474.41348042805566,
      "latitude_deg": 4.978804339449187e-06,
      "longitude_deg": 172.23699536048144,
      "height_km": 475.9428990524873,
      "semi_major_axis_km": 6853.392214059786,
      "eccentricity": 0.00012282,
      "inclination_deg": 53.1611,
      "raan_deg": 225.2103,
      "arg_perigee_deg": 75.5096,
      "mean_anomaly_deg": 284.6041,
      "mean_motion_rev_day": 15.30186555
    },
    {
      "epoch": "2026-03-31T08:14:24.581184Z",
      "apogee_km": 476.03547682671433,
      "perigee_km": 474.4043778780042,
      "latitude_deg": 2.5966133046127397e-05,
      "longitude_deg": -90.45358240900985,
      "height_km": 476.18262006361175,
      "semi_major_axis_km": 6853.356927352359,
      "eccentricity": 0.000119,
      "inclination_deg": 53.1603,
      "raan_deg": 221.8709,
      "arg_perigee_deg": 94.5345,
      "mean_anomaly_deg": 265.5792,
      "mean_motion_rev_day": 15.30198373
    },
    {
      "epoch": "2026-04-01T07:45:11.292768Z",
      "apogee_km": 476.2638050996102,
      "perigee_km": 473.61851692945766,
      "latitude_deg": 5.606258423155649e-05,
      "longitude_deg": -88.66513385447927,
      "height_km": 475.3522738435868,
      "semi_major_axis_km": 6853.078161014533,
      "eccentricity": 0.000193,
      "inclination_deg": 53.1602,
      "raan_deg": 217.3196,
      "arg_perigee_deg": 68.4287,
      "mean_anomaly_deg": 291.692,
      "mean_motion_rev_day": 15.30291741
    },
    {
      "epoch": "2026-04-02T18:14:23.237088Z",
      "apogee_km": 475.9805868701742,
      "perigee_km": 474.50299840248044,
      "latitude_deg": -4.1594521056094086e-05,
      "longitude_deg": 105.94511031246098,
      "height_km": 476.01869022174145,
      "semi_major_axis_km": 6853.378792636327,
      "eccentricity": 0.0001078,
      "inclination_deg": 53.1583,
      "raan_deg": 210.646,
      "arg_perigee_deg": 80.5516,
      "mean_anomaly_deg": 279.5606,
      "mean_motion_rev_day": 15.3019105
    },
    {
      "epoch": "2026-04-02T18:14:23.237952Z",
      "apogee_km": 475.9805183363851,
      "perigee_km": 474.5030669362686,
      "latitude_deg": -4.0695818428676e-05,
      "longitude_deg": 105.94510737223064,
      "height_km": 476.0187014735934,
      "semi_major_axis_km": 6853.378792636327,
      "eccentricity": 0.00010779,
      "inclination_deg": 53.1583,
      "raan_deg": 210.646,
      "arg_perigee_deg": 80.5516,
      "mean_anomaly_deg": 279.5606,
      "mean_motion_rev_day": 15.3019105
    }
  ]
}